JILIN-1 GAOFEN 3A       
1 44312U 19032C   26203.92467412  .00013478  00000+0  41911-3 0  9998
2 44312  44.9736 160.1405 0005418 159.7303 200.3798 15.33320684393326
JILIN-1 GAOFEN 2A       
1 44777U 19075A   26203.87802120  .00016214  00000+0  40584-3 0  9999
2 44777  97.4954 288.5230 0004564 322.3322  37.7604 15.40166261370372
JILIN-1 GAOFEN 2B       
1 44836U 19086A   26203.87265460  .00006786  00000+0  30783-3 0  9990
2 44836  97.4865 275.6452 0013975 188.1047 171.9965 15.21061975365910
JILIN-1 GAOFEN 3E       
1 46457U 20065D   26203.88008046  .00091881  00000+0  81902-3 0  9995
2 46457  97.2207 257.4232 0008705  45.2774 314.9195 15.68117585325345
JILIN-1 GAOFEN 3F       
1 46458U 20065E   26203.91112974  .00073248  00000+0  75075-3 0  9997
2 46458  97.2161 254.6022 0010022  30.2991 329.8846 15.64675746325286
JILIN-1 GAOFEN 3G       
1 46459U 20065F   26203.92241639  .00155919  00000+0  88704-3 0  9999
2 46459  97.2211 262.1001 0006687 240.2998 119.7604 15.78507711325566
JILIN-1 GAOFEN 3H       
1 46460U 20065G   26203.86236629  .00123819  00000+0  88087-3 0  9995
2 46460  97.2163 258.1101 0007316 179.5795 180.5477 15.73460895325480
JILIN-1 GAOFEN 2D       
1 49256U 21086A   26203.92544968  .00003717  00000+0  22421-3 0  9994
2 49256  97.6508 326.6298 0033451  24.9326 335.3511 15.10908253266112
JILIN-1 GAOFEN 2F       
1 49338U 21097A   26203.86962625  .00003650  00000+0  24045-3 0  9994
2 49338  97.6735 329.9937 0020245 105.2092 255.1376 15.07990334261694
JILIN-1 GAOFEN 3D27     
1 52444U 22048B   26203.74607006  .00244250  00000+0  10011-2 0  9999
2 52444  97.5723 321.1806 0005714 231.3604 128.7155 15.85394090235093
JILIN-1 GAOFEN 3D28     
1 52445U 22048C   26203.90256282  .00330710  43180-4  10346-2 0  9993
2 52445  97.5654 321.7169 0005747 236.7303 123.3420 15.91445018235186
JILIN-1 GAOFEN 3D29     
1 52446U 22048D   26203.91928157  .00238306  00000+0  96326-3 0  9992
2 52446  97.5716 321.7411 0004602 217.8254 142.2693 15.85706166235145
JILIN-1 GAOFEN 3D31     
1 52448U 22048F   26203.89036146  .00517394  11752-3  10743-2 0  9994
2 52448  97.5739 323.2066 0007318 246.0825 113.9686 15.99089373235258
JILIN-1 GAOFEN 03D09    
1 53445U 22098B   26203.92894470  .00095761  00000+0  75072-3 0  9999
2 53445  97.5630 336.4171 0003733 213.0442 147.0587 15.71265608220232
JILIN-1 GAOFEN 03D43    
1 53448U 22098E   26203.94955334  .00121518  00000+0  80139-3 0  9991
2 53448  97.5612 337.6472 0003917 208.8607 151.2441 15.75257500220312
JILIN-1 GAOFEN 03D08    
1 54251U 22155A   26203.93757407  .00078143  00000+0  69261-3 0  9996
2 54251  97.6237 352.3119 0004429 203.9483 156.1572 15.68338757205417
