{"fetched_at":"2026-07-23T07:05:48.218Z","source":"https://celestrak.org/NORAD/elements/gp.php?NAME=JILIN&FORMAT=JSON","constellation":"jilin-1-gaofen","records":[{"OBJECT_NAME":"JILIN-1 GAOFEN 3A","OBJECT_ID":"2019-032C","EPOCH":"2026-07-22T22:11:31.843968","CLASSIFICATION_TYPE":"U","MEAN_MOTION":15.33320684,"ECCENTRICITY":0.00054181,"INCLINATION":44.9736,"RA_OF_ASC_NODE":160.1405,"ARG_OF_PERICENTER":159.7303,"MEAN_ANOMALY":200.3798,"EPHEMERIS_TYPE":0,"NORAD_CAT_ID":44312,"ELEMENT_SET_NO":999,"REV_AT_EPOCH":39332,"BSTAR":0.00041910965,"MEAN_MOTION_DOT":0.00013478,"MEAN_MOTION_DDOT":0},{"OBJECT_NAME":"JILIN-1 GAOFEN 2A","OBJECT_ID":"2019-075A","EPOCH":"2026-07-22T21:04:21.031680","CLASSIFICATION_TYPE":"U","MEAN_MOTION":15.40166261,"ECCENTRICITY":0.00045645,"INCLINATION":97.4954,"RA_OF_ASC_NODE":288.523,"ARG_OF_PERICENTER":322.3322,"MEAN_ANOMALY":37.7604,"EPHEMERIS_TYPE":0,"NORAD_CAT_ID":44777,"ELEMENT_SET_NO":999,"REV_AT_EPOCH":37037,"BSTAR":0.00040583562,"MEAN_MOTION_DOT":0.00016214,"MEAN_MOTION_DDOT":0},{"OBJECT_NAME":"JILIN-1 GAOFEN 2B","OBJECT_ID":"2019-086A","EPOCH":"2026-07-22T20:56:37.357440","CLASSIFICATION_TYPE":"U","MEAN_MOTION":15.21061975,"ECCENTRICITY":0.00139757,"INCLINATION":97.4865,"RA_OF_ASC_NODE":275.6452,"ARG_OF_PERICENTER":188.1047,"MEAN_ANOMALY":171.9965,"EPHEMERIS_TYPE":0,"NORAD_CAT_ID":44836,"ELEMENT_SET_NO":999,"REV_AT_EPOCH":36591,"BSTAR":0.00030783213,"MEAN_MOTION_DOT":0.00006786,"MEAN_MOTION_DDOT":0},{"OBJECT_NAME":"JILIN-1 GAOFEN 3E","OBJECT_ID":"2020-065D","EPOCH":"2026-07-22T21:07:18.951744","CLASSIFICATION_TYPE":"U","MEAN_MOTION":15.68117585,"ECCENTRICITY":0.0008705,"INCLINATION":97.2207,"RA_OF_ASC_NODE":257.4232,"ARG_OF_PERICENTER":45.2774,"MEAN_ANOMALY":314.9195,"EPHEMERIS_TYPE":0,"NORAD_CAT_ID":46457,"ELEMENT_SET_NO":999,"REV_AT_EPOCH":32534,"BSTAR":0.00081902373,"MEAN_MOTION_DOT":0.00091881,"MEAN_MOTION_DDOT":0},{"OBJECT_NAME":"JILIN-1 GAOFEN 3F","OBJECT_ID":"2020-065E","EPOCH":"2026-07-22T21:52:01.609536","CLASSIFICATION_TYPE":"U","MEAN_MOTION":15.64675746,"ECCENTRICITY":0.00100226,"INCLINATION":97.2161,"RA_OF_ASC_NODE":254.6022,"ARG_OF_PERICENTER":30.2991,"MEAN_ANOMALY":329.8846,"EPHEMERIS_TYPE":0,"NORAD_CAT_ID":46458,"ELEMENT_SET_NO":999,"REV_AT_EPOCH":32528,"BSTAR":0.00075074939,"MEAN_MOTION_DOT":0.00073248,"MEAN_MOTION_DDOT":0},{"OBJECT_NAME":"JILIN-1 GAOFEN 3G","OBJECT_ID":"2020-065F","EPOCH":"2026-07-22T22:08:16.776096","CLASSIFICATION_TYPE":"U","MEAN_MOTION":15.78507711,"ECCENTRICITY":0.00066878,"INCLINATION":97.2211,"RA_OF_ASC_NODE":262.1001,"ARG_OF_PERICENTER":240.2998,"MEAN_ANOMALY":119.7604,"EPHEMERIS_TYPE":0,"NORAD_CAT_ID":46459,"ELEMENT_SET_NO":999,"REV_AT_EPOCH":32556,"BSTAR":0.00088703987,"MEAN_MOTION_DOT":0.00155919,"MEAN_MOTION_DDOT":0},{"OBJECT_NAME":"JILIN-1 GAOFEN 3H","OBJECT_ID":"2020-065G","EPOCH":"2026-07-22T20:41:48.447456","CLASSIFICATION_TYPE":"U","MEAN_MOTION":15.73460895,"ECCENTRICITY":0.00073163,"INCLINATION":97.2163,"RA_OF_ASC_NODE":258.1101,"ARG_OF_PERICENTER":179.5795,"MEAN_ANOMALY":180.5477,"EPHEMERIS_TYPE":0,"NORAD_CAT_ID":46460,"ELEMENT_SET_NO":999,"REV_AT_EPOCH":32548,"BSTAR":0.00088086579,"MEAN_MOTION_DOT":0.00123819,"MEAN_MOTION_DDOT":0},{"OBJECT_NAME":"JILIN-1 GAOFEN 2D","OBJECT_ID":"2021-086A","EPOCH":"2026-07-22T22:12:38.852352","CLASSIFICATION_TYPE":"U","MEAN_MOTION":15.10908253,"ECCENTRICITY":0.00334518,"INCLINATION":97.6508,"RA_OF_ASC_NODE":326.6298,"ARG_OF_PERICENTER":24.9326,"MEAN_ANOMALY":335.3511,"EPHEMERIS_TYPE":0,"NORAD_CAT_ID":49256,"ELEMENT_SET_NO":999,"REV_AT_EPOCH":26611,"BSTAR":0.00022420997,"MEAN_MOTION_DOT":0.00003717,"MEAN_MOTION_DDOT":0},{"OBJECT_NAME":"JILIN-1 GAOFEN 2F","OBJECT_ID":"2021-097A","EPOCH":"2026-07-22T20:52:15.708000","CLASSIFICATION_TYPE":"U","MEAN_MOTION":15.07990334,"ECCENTRICITY":0.00202457,"INCLINATION":97.6735,"RA_OF_ASC_NODE":329.9937,"ARG_OF_PERICENTER":105.2092,"MEAN_ANOMALY":255.1376,"EPHEMERIS_TYPE":0,"NORAD_CAT_ID":49338,"ELEMENT_SET_NO":999,"REV_AT_EPOCH":26169,"BSTAR":0.00024045424,"MEAN_MOTION_DOT":0.0000365,"MEAN_MOTION_DDOT":0},{"OBJECT_NAME":"JILIN-1 GAOFEN 3D27","OBJECT_ID":"2022-048B","EPOCH":"2026-07-22T17:54:20.453184","CLASSIFICATION_TYPE":"U","MEAN_MOTION":15.8539409,"ECCENTRICITY":0.00057144,"INCLINATION":97.5723,"RA_OF_ASC_NODE":321.1806,"ARG_OF_PERICENTER":231.3604,"MEAN_ANOMALY":128.7155,"EPHEMERIS_TYPE":0,"NORAD_CAT_ID":52444,"ELEMENT_SET_NO":999,"REV_AT_EPOCH":23509,"BSTAR":0.0010011054,"MEAN_MOTION_DOT":0.0024425,"MEAN_MOTION_DDOT":0},{"OBJECT_NAME":"JILIN-1 GAOFEN 3D28","OBJECT_ID":"2022-048C","EPOCH":"2026-07-22T21:39:41.427648","CLASSIFICATION_TYPE":"U","MEAN_MOTION":15.91445018,"ECCENTRICITY":0.00057474,"INCLINATION":97.5654,"RA_OF_ASC_NODE":321.7169,"ARG_OF_PERICENTER":236.7303,"MEAN_ANOMALY":123.342,"EPHEMERIS_TYPE":0,"NORAD_CAT_ID":52445,"ELEMENT_SET_NO":999,"REV_AT_EPOCH":23518,"BSTAR":0.0010345515,"MEAN_MOTION_DOT":0.0033071,"MEAN_MOTION_DDOT":0.000043179644},{"OBJECT_NAME":"JILIN-1 GAOFEN 3D29","OBJECT_ID":"2022-048D","EPOCH":"2026-07-22T22:03:45.927648","CLASSIFICATION_TYPE":"U","MEAN_MOTION":15.85706166,"ECCENTRICITY":0.00046021,"INCLINATION":97.5716,"RA_OF_ASC_NODE":321.7411,"ARG_OF_PERICENTER":217.8254,"MEAN_ANOMALY":142.2693,"EPHEMERIS_TYPE":0,"NORAD_CAT_ID":52446,"ELEMENT_SET_NO":999,"REV_AT_EPOCH":23514,"BSTAR":0.00096326354,"MEAN_MOTION_DOT":0.00238306,"MEAN_MOTION_DDOT":0},{"OBJECT_NAME":"JILIN-1 GAOFEN 3D31","OBJECT_ID":"2022-048F","EPOCH":"2026-07-22T21:22:07.230144","CLASSIFICATION_TYPE":"U","MEAN_MOTION":15.99089373,"ECCENTRICITY":0.00073184,"INCLINATION":97.5739,"RA_OF_ASC_NODE":323.2066,"ARG_OF_PERICENTER":246.0825,"MEAN_ANOMALY":113.9686,"EPHEMERIS_TYPE":0,"NORAD_CAT_ID":52448,"ELEMENT_SET_NO":999,"REV_AT_EPOCH":23525,"BSTAR":0.0010742846,"MEAN_MOTION_DOT":0.00517394,"MEAN_MOTION_DDOT":0.00011751555},{"OBJECT_NAME":"JILIN-1 GAOFEN 03D09","OBJECT_ID":"2022-098B","EPOCH":"2026-07-22T22:17:40.822080","CLASSIFICATION_TYPE":"U","MEAN_MOTION":15.71265608,"ECCENTRICITY":0.00037338,"INCLINATION":97.563,"RA_OF_ASC_NODE":336.4171,"ARG_OF_PERICENTER":213.0442,"MEAN_ANOMALY":147.0587,"EPHEMERIS_TYPE":0,"NORAD_CAT_ID":53445,"ELEMENT_SET_NO":999,"REV_AT_EPOCH":22023,"BSTAR":0.00075071822,"MEAN_MOTION_DOT":0.00095761,"MEAN_MOTION_DDOT":0},{"OBJECT_NAME":"JILIN-1 GAOFEN 03D43","OBJECT_ID":"2022-098E","EPOCH":"2026-07-22T22:47:21.408576","CLASSIFICATION_TYPE":"U","MEAN_MOTION":15.752575,"ECCENTRICITY":0.00039173,"INCLINATION":97.5612,"RA_OF_ASC_NODE":337.6472,"ARG_OF_PERICENTER":208.8607,"MEAN_ANOMALY":151.2441,"EPHEMERIS_TYPE":0,"NORAD_CAT_ID":53448,"ELEMENT_SET_NO":999,"REV_AT_EPOCH":22031,"BSTAR":0.0008013945,"MEAN_MOTION_DOT":0.00121518,"MEAN_MOTION_DDOT":0},{"OBJECT_NAME":"JILIN-1 GAOFEN 03D08","OBJECT_ID":"2022-155A","EPOCH":"2026-07-22T22:30:06.399648","CLASSIFICATION_TYPE":"U","MEAN_MOTION":15.68338757,"ECCENTRICITY":0.00044291,"INCLINATION":97.6237,"RA_OF_ASC_NODE":352.3119,"ARG_OF_PERICENTER":203.9483,"MEAN_ANOMALY":156.1572,"EPHEMERIS_TYPE":0,"NORAD_CAT_ID":54251,"ELEMENT_SET_NO":999,"REV_AT_EPOCH":20541,"BSTAR":0.00069261158,"MEAN_MOTION_DOT":0.00078143,"MEAN_MOTION_DDOT":0}]}
